[Satellite]
VERSION=1.1
NAME=CZ-6A DEB
NICKNAME=CZ-6A DEB
TLE1=1 54303U 22151AW  22342.27791967 -.00000026  00000+0  10251-4 0  9998
TLE2=2 54303  98.8337 346.8989 0047357  17.1892 343.0869 14.08765978  3131
STATUS=0
